IRIDIUM 126             
1 42809U 17039G   25001.30322876  .00000667  00000+0  23100-3 0  9999
2 42809  86.3977 215.8766 0001753  77.9216 282.2176 14.34214062393716
IRIDIUM 124             
1 42810U 17039H   25001.35418533  .00001379  00000+0  40399-3 0  9992
2 42810  86.4515 152.7006 0002085 104.1506 255.9926 14.43281975398405
IRIDIUM 128             
1 42811U 17039J   25001.43350263  .00000193  00000+0  61799-4 0  9998
2 42811  86.3963 247.3285 0001889  92.4749 267.6663 14.34217435393763
IRIDIUM 121             
1 42812U 17039K   25001.53156105  .00000161  00000+0  50452-4 0  9998
2 42812  86.3977 215.8057 0002027  92.3718 267.7710 14.34218162393623
IRIDIUM 133             
1 42955U 17061A   25001.39544711  .00000075  00000+0  19702-4 0  9996
2 42955  86.3965 247.4492 0001926  85.8559 274.2857 14.34218028378550
IRIDIUM 100             
1 42956U 17061B   25001.38910351  .00000189  00000+0  60365-4 0  9990
2 42956  86.3962 247.3828 0001793  88.9947 271.1455 14.34218900378556
IRIDIUM 122             
1 42957U 17061C   25001.56669592  .00000098  00000+0  27759-4 0  9998
2 42957  86.3961 247.3074 0001816  83.8080 276.3323 14.34216846378588
IRIDIUM 129             
1 42958U 17061D   25001.38276199  .00000288  00000+0  95691-4 0  9997
2 42958  86.3962 247.4457 0002164  75.3067 284.8368 14.34218617378574
